[{"OBJECT_NAME":"ONEWEB-0274","OBJECT_ID":"2021-060AB","EPOCH":"2026-03-09T21:53:58.822368","MEAN_MOTION":13.16593541,"ECCENTRICITY":0.00013385,"INCLINATION":87.8994,"RA_OF_ASC_NODE":248.5411,"ARG_OF_PERICENTER":103.9093,"MEAN_ANOMALY":256.2187,"EPHEMERIS_TYPE":0,"CLASSIFICATION_TYPE":"U","NORAD_CAT_ID":48992,"ELEMENT_SET_NO":999,"REV_AT_EPOCH":22656,"BSTAR":-0.00024860459,"MEAN_MOTION_DOT":-8.2e-7,"MEAN_MOTION_DDOT":0},{"OBJECT_NAME":"CZ-4C R\/B","OBJECT_ID":"2013-065B","EPOCH":"2026-03-09T19:33:54.259776","MEAN_MOTION":13.43545028,"ECCENTRICITY":0.01407628,"INCLINATION":100.4023,"RA_OF_ASC_NODE":8.9603,"ARG_OF_PERICENTER":84.2479,"MEAN_ANOMALY":277.4679,"EPHEMERIS_TYPE":0,"CLASSIFICATION_TYPE":"U","NORAD_CAT_ID":39411,"ELEMENT_SET_NO":999,"REV_AT_EPOCH":60324,"BSTAR":9.8260136e-5,"MEAN_MOTION_DOT":1.3e-7,"MEAN_MOTION_DDOT":0}]
